{
  "type": "FeatureCollection",
  "features": [
    {
      "type": "Feature",
      "properties": {
        "amenity": "bicycle_parking",
        "bicycle_parking": "lockers",
        "capacity": 4,
        "operator": "City of Toronto",
        "covered": "yes",
        "access": "customers",
        "fee": "yes",
        "description": "Long Branch: Located at Lakeshore Rd. and Browns Line",
        "meta_source": "City of Toronto",
        "meta_source_dataset": "City of Toronto Bicycle Locker webpage",
        "meta_source_url": "https://www.toronto.ca/services-payments/streets-parking-transportation/cycling-in-toronto/bicycle-parking/bicycle-lockers/locker-locations/",
        "meta_source_license": "https://www.toronto.ca/home/copyright-information/",
        "meta_source_last_updated": "2025-07-02 09:15:56-04:00",
        "website": "https://www.toronto.ca/services-payments/streets-parking-transportation/cycling-in-toronto/bicycle-parking/bicycle-lockers/",
        "operator:type": "government",
        "ref:toronto.ca:lockers:title": "Long Branch"
      },
      "geometry": {
        "type": "Point",
        "coordinates": [
          -79.5432472,
          43.5921721
        ]
      }
    },
    {
      "type": "Feature",
      "properties": {
        "amenity": "bicycle_parking",
        "bicycle_parking": "lockers",
        "capacity": 2,
        "operator": "City of Toronto",
        "covered": "yes",
        "access": "customers",
        "fee": "yes",
        "description": "Yorkdale Subway: Located outside of the Yorkdale Subway Station under the bridge",
        "meta_source": "City of Toronto",
        "meta_source_dataset": "City of Toronto Bicycle Locker webpage",
        "meta_source_url": "https://www.toronto.ca/services-payments/streets-parking-transportation/cycling-in-toronto/bicycle-parking/bicycle-lockers/locker-locations/",
        "meta_source_license": "https://www.toronto.ca/home/copyright-information/",
        "meta_source_last_updated": "2025-07-02 09:15:56-04:00",
        "website": "https://www.toronto.ca/services-payments/streets-parking-transportation/cycling-in-toronto/bicycle-parking/bicycle-lockers/",
        "operator:type": "government",
        "ref:toronto.ca:lockers:title": "Yorkdale Subway"
      },
      "geometry": {
        "type": "Point",
        "coordinates": [
          -79.448576,
          43.72347489999999
        ]
      }
    }
  ]
}