{
  "type": "FeatureCollection",
  "features": [
    {
      "type": "Feature",
      "properties": {
        "amenity": "bicycle_parking",
        "bicycle_parking": "lockers",
        "capacity": 12,
        "covered": "yes",
        "fee": "yes",
        "operator": "City of Toronto",
        "operator:type": "government",
        "access": "customers",
        "website": "https://www.toronto.ca/services-payments/streets-parking-transportation/cycling-in-toronto/bicycle-parking/bicycle-lockers/",
        "description": "Bayview Subway Station: North side of Sheppard Ave., east of Bayview Ave.",
        "ref:toronto.ca:lockers:title": "Bayview Subway Station",
        "meta_source": "City of Toronto",
        "meta_source_dataset": "City of Toronto Bicycle Locker webpage",
        "meta_source_url": "https://www.toronto.ca/services-payments/streets-parking-transportation/cycling-in-toronto/bicycle-parking/bicycle-lockers/locker-locations/",
        "meta_source_license": "https://www.toronto.ca/home/copyright-information/",
        "meta_source_last_updated": "2025-07-02T09:15:56-04:00"
      },
      "geometry": {
        "type": "Point",
        "coordinates": [
          -79.3871427,
          43.7670186
        ]
      }
    },
    {
      "type": "Feature",
      "properties": {
        "amenity": "bicycle_parking",
        "bicycle_parking": "lockers",
        "capacity": 4,
        "covered": "yes",
        "fee": "yes",
        "operator": "City of Toronto",
        "operator:type": "government",
        "access": "customers",
        "website": "https://www.toronto.ca/services-payments/streets-parking-transportation/cycling-in-toronto/bicycle-parking/bicycle-lockers/",
        "description": "Don Mills Subway Station: Northeast corner of Don Mills Rd. and Sheppard Ave. E.",
        "ref:toronto.ca:lockers:title": "Don Mills Subway Station",
        "meta_source": "City of Toronto",
        "meta_source_dataset": "City of Toronto Bicycle Locker webpage",
        "meta_source_url": "https://www.toronto.ca/services-payments/streets-parking-transportation/cycling-in-toronto/bicycle-parking/bicycle-lockers/locker-locations/",
        "meta_source_license": "https://www.toronto.ca/home/copyright-information/",
        "meta_source_last_updated": "2025-07-02T09:15:56-04:00"
      },
      "geometry": {
        "type": "Point",
        "coordinates": [
          -79.3446565,
          43.7778801
        ]
      }
    },
    {
      "type": "Feature",
      "properties": {
        "amenity": "bicycle_parking",
        "bicycle_parking": "lockers",
        "capacity": 30,
        "covered": "yes",
        "fee": "yes",
        "operator": "City of Toronto",
        "operator:type": "government",
        "access": "customers",
        "website": "https://www.toronto.ca/services-payments/streets-parking-transportation/cycling-in-toronto/bicycle-parking/bicycle-lockers/",
        "description": "Sheppard West Subway Station (Formerly Downsview Subway Station): Outside of passenger drop-off and pick-up area",
        "ref:toronto.ca:lockers:title": "Sheppard West Subway Station (Formerly Downsview Subway Station)",
        "meta_source": "City of Toronto",
        "meta_source_dataset": "City of Toronto Bicycle Locker webpage",
        "meta_source_url": "https://www.toronto.ca/services-payments/streets-parking-transportation/cycling-in-toronto/bicycle-parking/bicycle-lockers/locker-locations/",
        "meta_source_license": "https://www.toronto.ca/home/copyright-information/",
        "meta_source_last_updated": "2025-07-02T09:15:56-04:00"
      },
      "geometry": {
        "type": "Point",
        "coordinates": [
          -79.4623947,
          43.7497537
        ]
      }
    },
    {
      "type": "Feature",
      "properties": {
        "amenity": "bicycle_parking",
        "bicycle_parking": "lockers",
        "capacity": 6,
        "covered": "yes",
        "fee": "yes",
        "operator": "City of Toronto",
        "operator:type": "government",
        "access": "customers",
        "website": "https://www.toronto.ca/services-payments/streets-parking-transportation/cycling-in-toronto/bicycle-parking/bicycle-lockers/",
        "description": "Eglinton GO: In parking lot, east of the station house",
        "ref:toronto.ca:lockers:title": "Eglinton GO",
        "meta_source": "City of Toronto",
        "meta_source_dataset": "City of Toronto Bicycle Locker webpage",
        "meta_source_url": "https://www.toronto.ca/services-payments/streets-parking-transportation/cycling-in-toronto/bicycle-parking/bicycle-lockers/locker-locations/",
        "meta_source_license": "https://www.toronto.ca/home/copyright-information/",
        "meta_source_last_updated": "2025-07-02T09:15:56-04:00"
      },
      "geometry": {
        "type": "Point",
        "coordinates": [
          -79.2307806,
          43.7396776
        ]
      }
    },
    {
      "type": "Feature",
      "properties": {
        "amenity": "bicycle_parking",
        "bicycle_parking": "lockers",
        "capacity": 6,
        "covered": "yes",
        "fee": "yes",
        "operator": "City of Toronto",
        "operator:type": "government",
        "access": "customers",
        "website": "https://www.toronto.ca/services-payments/streets-parking-transportation/cycling-in-toronto/bicycle-parking/bicycle-lockers/",
        "description": "Etobicoke Civic Centre: Located on the south side, before the outside ATM",
        "ref:toronto.ca:lockers:title": "Etobicoke Civic Centre",
        "meta_source": "City of Toronto",
        "meta_source_dataset": "City of Toronto Bicycle Locker webpage",
        "meta_source_url": "https://www.toronto.ca/services-payments/streets-parking-transportation/cycling-in-toronto/bicycle-parking/bicycle-lockers/locker-locations/",
        "meta_source_license": "https://www.toronto.ca/home/copyright-information/",
        "meta_source_last_updated": "2025-07-02T09:15:56-04:00"
      },
      "geometry": {
        "type": "Point",
        "coordinates": [
          -79.5644903,
          43.6430476
        ]
      }
    },
    {
      "type": "Feature",
      "properties": {
        "amenity": "bicycle_parking",
        "bicycle_parking": "lockers",
        "capacity": 6,
        "covered": "yes",
        "fee": "yes",
        "operator": "City of Toronto",
        "operator:type": "government",
        "access": "customers",
        "website": "https://www.toronto.ca/services-payments/streets-parking-transportation/cycling-in-toronto/bicycle-parking/bicycle-lockers/",
        "description": "Exhibition Place: On the south side of Exhibition GO Station",
        "ref:toronto.ca:lockers:title": "Exhibition Place",
        "meta_source": "City of Toronto",
        "meta_source_dataset": "City of Toronto Bicycle Locker webpage",
        "meta_source_url": "https://www.toronto.ca/services-payments/streets-parking-transportation/cycling-in-toronto/bicycle-parking/bicycle-lockers/locker-locations/",
        "meta_source_license": "https://www.toronto.ca/home/copyright-information/",
        "meta_source_last_updated": "2025-07-02T09:15:56-04:00"
      },
      "geometry": {
        "type": "Point",
        "coordinates": [
          -79.4208741,
          43.6348794
        ]
      }
    },
    {
      "type": "Feature",
      "properties": {
        "amenity": "bicycle_parking",
        "bicycle_parking": "lockers",
        "capacity": 12,
        "covered": "yes",
        "fee": "yes",
        "operator": "City of Toronto",
        "operator:type": "government",
        "access": "customers",
        "website": "https://www.toronto.ca/services-payments/streets-parking-transportation/cycling-in-toronto/bicycle-parking/bicycle-lockers/",
        "description": "Finch GO: Just north of the station house on the east side of Yonge St.",
        "ref:toronto.ca:lockers:title": "Finch GO",
        "meta_source": "City of Toronto",
        "meta_source_dataset": "City of Toronto Bicycle Locker webpage",
        "meta_source_url": "https://www.toronto.ca/services-payments/streets-parking-transportation/cycling-in-toronto/bicycle-parking/bicycle-lockers/locker-locations/",
        "meta_source_license": "https://www.toronto.ca/home/copyright-information/",
        "meta_source_last_updated": "2025-07-02T09:15:56-04:00"
      },
      "geometry": {
        "type": "Point",
        "coordinates": [
          -79.4157887,
          43.7820476
        ]
      }
    },
    {
      "type": "Feature",
      "properties": {
        "amenity": "bicycle_parking",
        "bicycle_parking": "lockers",
        "capacity": 12,
        "covered": "yes",
        "fee": "yes",
        "operator": "City of Toronto",
        "operator:type": "government",
        "access": "customers",
        "website": "https://www.toronto.ca/services-payments/streets-parking-transportation/cycling-in-toronto/bicycle-parking/bicycle-lockers/",
        "description": "Finch Subway Station: Located on the west side of Yonge St. beside the passenger drop-off and pick-up",
        "ref:toronto.ca:lockers:title": "Finch Subway Station",
        "meta_source": "City of Toronto",
        "meta_source_dataset": "City of Toronto Bicycle Locker webpage",
        "meta_source_url": "https://www.toronto.ca/services-payments/streets-parking-transportation/cycling-in-toronto/bicycle-parking/bicycle-lockers/locker-locations/",
        "meta_source_license": "https://www.toronto.ca/home/copyright-information/",
        "meta_source_last_updated": "2025-07-02T09:15:56-04:00"
      },
      "geometry": {
        "type": "Point",
        "coordinates": [
          -79.4159389,
          43.781273
        ]
      }
    },
    {
      "type": "Feature",
      "properties": {
        "amenity": "bicycle_parking",
        "bicycle_parking": "lockers",
        "capacity": 6,
        "covered": "yes",
        "fee": "yes",
        "operator": "City of Toronto",
        "operator:type": "government",
        "access": "customers",
        "website": "https://www.toronto.ca/services-payments/streets-parking-transportation/cycling-in-toronto/bicycle-parking/bicycle-lockers/",
        "description": "Guildwood GO Station: Located within the parking lot across from the station house",
        "ref:toronto.ca:lockers:title": "Guildwood GO Station",
        "meta_source": "City of Toronto",
        "meta_source_dataset": "City of Toronto Bicycle Locker webpage",
        "meta_source_url": "https://www.toronto.ca/services-payments/streets-parking-transportation/cycling-in-toronto/bicycle-parking/bicycle-lockers/locker-locations/",
        "meta_source_license": "https://www.toronto.ca/home/copyright-information/",
        "meta_source_last_updated": "2025-07-02T09:15:56-04:00"
      },
      "geometry": {
        "type": "Point",
        "coordinates": [
          -79.1982722,
          43.7547291
        ]
      }
    },
    {
      "type": "Feature",
      "properties": {
        "amenity": "bicycle_parking",
        "bicycle_parking": "lockers",
        "capacity": 6,
        "covered": "yes",
        "fee": "yes",
        "operator": "City of Toronto",
        "operator:type": "government",
        "access": "customers",
        "website": "https://www.toronto.ca/services-payments/streets-parking-transportation/cycling-in-toronto/bicycle-parking/bicycle-lockers/",
        "description": "Kennedy Subway Station: Lockers are located on south side of the Kiss\u2019n\u2019Ride off Transway Crescent",
        "ref:toronto.ca:lockers:title": "Kennedy Subway Station",
        "meta_source": "City of Toronto",
        "meta_source_dataset": "City of Toronto Bicycle Locker webpage",
        "meta_source_url": "https://www.toronto.ca/services-payments/streets-parking-transportation/cycling-in-toronto/bicycle-parking/bicycle-lockers/locker-locations/",
        "meta_source_license": "https://www.toronto.ca/home/copyright-information/",
        "meta_source_last_updated": "2025-07-02T09:15:56-04:00"
      },
      "geometry": {
        "type": "Point",
        "coordinates": [
          -79.2636967,
          43.7325304
        ]
      }
    },
    {
      "type": "Feature",
      "properties": {
        "amenity": "bicycle_parking",
        "bicycle_parking": "lockers",
        "capacity": 4,
        "covered": "yes",
        "fee": "yes",
        "operator": "City of Toronto",
        "operator:type": "government",
        "access": "customers",
        "website": "https://www.toronto.ca/services-payments/streets-parking-transportation/cycling-in-toronto/bicycle-parking/bicycle-lockers/",
        "description": "Long Branch: Located at Lakeshore Rd. and Browns Line",
        "ref:toronto.ca:lockers:title": "Long Branch",
        "meta_source": "City of Toronto",
        "meta_source_dataset": "City of Toronto Bicycle Locker webpage",
        "meta_source_url": "https://www.toronto.ca/services-payments/streets-parking-transportation/cycling-in-toronto/bicycle-parking/bicycle-lockers/locker-locations/",
        "meta_source_license": "https://www.toronto.ca/home/copyright-information/",
        "meta_source_last_updated": "2025-07-02T09:15:56-04:00"
      },
      "geometry": {
        "type": "Point",
        "coordinates": [
          -79.5432472,
          43.5921721
        ]
      }
    },
    {
      "type": "Feature",
      "properties": {
        "amenity": "bicycle_parking",
        "bicycle_parking": "lockers",
        "capacity": 40,
        "covered": "yes",
        "fee": "yes",
        "operator": "City of Toronto",
        "operator:type": "government",
        "access": "customers",
        "website": "https://www.toronto.ca/services-payments/streets-parking-transportation/cycling-in-toronto/bicycle-parking/bicycle-lockers/",
        "description": "Metro Hall: Two segments at the King St. W. and Wellington St. W. entrances",
        "ref:toronto.ca:lockers:title": "Metro Hall",
        "meta_source": "City of Toronto",
        "meta_source_dataset": "City of Toronto Bicycle Locker webpage",
        "meta_source_url": "https://www.toronto.ca/services-payments/streets-parking-transportation/cycling-in-toronto/bicycle-parking/bicycle-lockers/locker-locations/",
        "meta_source_license": "https://www.toronto.ca/home/copyright-information/",
        "meta_source_last_updated": "2025-07-02T09:15:56-04:00"
      },
      "geometry": {
        "type": "Point",
        "coordinates": [
          -79.3891382,
          43.6460289
        ]
      }
    },
    {
      "type": "Feature",
      "properties": {
        "amenity": "bicycle_parking",
        "bicycle_parking": "lockers",
        "capacity": 10,
        "covered": "yes",
        "fee": "yes",
        "operator": "City of Toronto",
        "operator:type": "government",
        "access": "customers",
        "website": "https://www.toronto.ca/services-payments/streets-parking-transportation/cycling-in-toronto/bicycle-parking/bicycle-lockers/",
        "description": "Ontario Institute for Studies in Education (OISE): Close to St. George Subway. Located at the back of the building (north of Bloor) next to the ramp to the parking garage on Prince Arthur Ave.",
        "ref:toronto.ca:lockers:title": "Ontario Institute for Studies in Education (OISE)",
        "meta_source": "City of Toronto",
        "meta_source_dataset": "City of Toronto Bicycle Locker webpage",
        "meta_source_url": "https://www.toronto.ca/services-payments/streets-parking-transportation/cycling-in-toronto/bicycle-parking/bicycle-lockers/locker-locations/",
        "meta_source_license": "https://www.toronto.ca/home/copyright-information/",
        "meta_source_last_updated": "2025-07-02T09:15:56-04:00"
      },
      "geometry": {
        "type": "Point",
        "coordinates": [
          -79.3984938,
          43.6679647
        ]
      }
    },
    {
      "type": "Feature",
      "properties": {
        "amenity": "bicycle_parking",
        "bicycle_parking": "lockers",
        "capacity": 4,
        "covered": "yes",
        "fee": "yes",
        "operator": "City of Toronto",
        "operator:type": "government",
        "access": "customers",
        "website": "https://www.toronto.ca/services-payments/streets-parking-transportation/cycling-in-toronto/bicycle-parking/bicycle-lockers/",
        "description": "Rouge Hill GO Station: Located on the north side of the tracks near the eastern most bike shelter",
        "ref:toronto.ca:lockers:title": "Rouge Hill GO Station",
        "meta_source": "City of Toronto",
        "meta_source_dataset": "City of Toronto Bicycle Locker webpage",
        "meta_source_url": "https://www.toronto.ca/services-payments/streets-parking-transportation/cycling-in-toronto/bicycle-parking/bicycle-lockers/locker-locations/",
        "meta_source_license": "https://www.toronto.ca/home/copyright-information/",
        "meta_source_last_updated": "2025-07-02T09:15:56-04:00"
      },
      "geometry": {
        "type": "Point",
        "coordinates": [
          -79.1316032,
          43.7806998
        ]
      }
    },
    {
      "type": "Feature",
      "properties": {
        "amenity": "bicycle_parking",
        "bicycle_parking": "lockers",
        "capacity": 12,
        "covered": "yes",
        "fee": "yes",
        "operator": "City of Toronto",
        "operator:type": "government",
        "access": "customers",
        "website": "https://www.toronto.ca/services-payments/streets-parking-transportation/cycling-in-toronto/bicycle-parking/bicycle-lockers/",
        "description": "Scarborough Civic Centre: North side of Albert Campbell Sq. next to picnic tables",
        "ref:toronto.ca:lockers:title": "Scarborough Civic Centre",
        "meta_source": "City of Toronto",
        "meta_source_dataset": "City of Toronto Bicycle Locker webpage",
        "meta_source_url": "https://www.toronto.ca/services-payments/streets-parking-transportation/cycling-in-toronto/bicycle-parking/bicycle-lockers/locker-locations/",
        "meta_source_license": "https://www.toronto.ca/home/copyright-information/",
        "meta_source_last_updated": "2025-07-02T09:15:56-04:00"
      },
      "geometry": {
        "type": "Point",
        "coordinates": [
          -79.2576885,
          43.7728912
        ]
      }
    },
    {
      "type": "Feature",
      "properties": {
        "amenity": "bicycle_parking",
        "bicycle_parking": "lockers",
        "capacity": 6,
        "covered": "yes",
        "fee": "yes",
        "operator": "City of Toronto",
        "operator:type": "government",
        "access": "customers",
        "website": "https://www.toronto.ca/services-payments/streets-parking-transportation/cycling-in-toronto/bicycle-parking/bicycle-lockers/",
        "description": "Scarborough GO Station: Located on the south side of the tracks next to the bike shelter",
        "ref:toronto.ca:lockers:title": "Scarborough GO Station",
        "meta_source": "City of Toronto",
        "meta_source_dataset": "City of Toronto Bicycle Locker webpage",
        "meta_source_url": "https://www.toronto.ca/services-payments/streets-parking-transportation/cycling-in-toronto/bicycle-parking/bicycle-lockers/locker-locations/",
        "meta_source_license": "https://www.toronto.ca/home/copyright-information/",
        "meta_source_last_updated": "2025-07-02T09:15:56-04:00"
      },
      "geometry": {
        "type": "Point",
        "coordinates": [
          -79.2516804,
          43.7186055
        ]
      }
    },
    {
      "type": "Feature",
      "properties": {
        "amenity": "bicycle_parking",
        "bicycle_parking": "lockers",
        "capacity": 2,
        "covered": "yes",
        "fee": "yes",
        "operator": "City of Toronto",
        "operator:type": "government",
        "access": "customers",
        "website": "https://www.toronto.ca/services-payments/streets-parking-transportation/cycling-in-toronto/bicycle-parking/bicycle-lockers/",
        "description": "Yorkdale Subway: Located outside of the Yorkdale Subway Station under the bridge",
        "ref:toronto.ca:lockers:title": "Yorkdale Subway",
        "meta_source": "City of Toronto",
        "meta_source_dataset": "City of Toronto Bicycle Locker webpage",
        "meta_source_url": "https://www.toronto.ca/services-payments/streets-parking-transportation/cycling-in-toronto/bicycle-parking/bicycle-lockers/locker-locations/",
        "meta_source_license": "https://www.toronto.ca/home/copyright-information/",
        "meta_source_last_updated": "2025-07-02T09:15:56-04:00"
      },
      "geometry": {
        "type": "Point",
        "coordinates": [
          -79.448576,
          43.7234749
        ]
      }
    },
    {
      "type": "Feature",
      "properties": {
        "amenity": "bicycle_parking",
        "bicycle_parking": "lockers",
        "capacity": 6,
        "covered": "yes",
        "fee": "yes",
        "operator": "City of Toronto",
        "operator:type": "government",
        "access": "customers",
        "website": "https://www.toronto.ca/services-payments/streets-parking-transportation/cycling-in-toronto/bicycle-parking/bicycle-lockers/",
        "description": "North York Civic Centre: South side of the Civic Centre, slightly west of Beecroft Rd. (near Douglas Snow Aquatic Centre).",
        "ref:toronto.ca:lockers:title": "North York Civic Centre",
        "meta_source": "City of Toronto",
        "meta_source_dataset": "City of Toronto Bicycle Locker webpage",
        "meta_source_url": "https://www.toronto.ca/services-payments/streets-parking-transportation/cycling-in-toronto/bicycle-parking/bicycle-lockers/locker-locations/",
        "meta_source_license": "https://www.toronto.ca/home/copyright-information/",
        "meta_source_last_updated": "2025-07-02T09:15:56-04:00"
      },
      "geometry": {
        "type": "Point",
        "coordinates": [
          -79.4149518,
          43.767282
        ]
      }
    },
    {
      "type": "Feature",
      "properties": {
        "amenity": "bicycle_parking",
        "bicycle_parking": "lockers",
        "capacity": 8,
        "covered": "yes",
        "fee": "yes",
        "operator": "City of Toronto",
        "operator:type": "government",
        "access": "customers",
        "website": "https://www.toronto.ca/services-payments/streets-parking-transportation/cycling-in-toronto/bicycle-parking/bicycle-lockers/",
        "description": "Kipling Station: Located west of the subway at parking lot",
        "ref:toronto.ca:lockers:title": "Kipling Station",
        "meta_source": "City of Toronto",
        "meta_source_dataset": "City of Toronto Bicycle Locker webpage",
        "meta_source_url": "https://www.toronto.ca/services-payments/streets-parking-transportation/cycling-in-toronto/bicycle-parking/bicycle-lockers/locker-locations/",
        "meta_source_license": "https://www.toronto.ca/home/copyright-information/",
        "meta_source_last_updated": "2025-07-02T09:15:56-04:00"
      },
      "geometry": {
        "type": "Point",
        "coordinates": [
          -79.5357585,
          43.6367274
        ]
      }
    }
  ]
}