{
  "type": "FeatureCollection",
  "features": [
    {
      "type": "Feature",
      "properties": {
        "amenity": "bicycle_parking",
        "bicycle_parking": "lockers",
        "capacity": 4,
        "covered": "yes",
        "fee": "yes",
        "operator": "City of Toronto",
        "operator:type": "government",
        "access": "customers",
        "website": "https://www.toronto.ca/services-payments/streets-parking-transportation/cycling-in-toronto/bicycle-parking/bicycle-lockers/",
        "description": "Don Mills Subway Station: Northeast corner of Don Mills Rd. and Sheppard Ave. E.",
        "meta_source": "City of Toronto",
        "meta_source_dataset": "City of Toronto Bicycle Locker webpage",
        "meta_source_url": "https://www.toronto.ca/services-payments/streets-parking-transportation/cycling-in-toronto/bicycle-parking/bicycle-lockers/locker-locations/",
        "meta_source_license": "https://www.toronto.ca/home/copyright-information/",
        "meta_source_last_updated": "2025-07-02 09:15:56-04:00"
      },
      "geometry": {
        "type": "Point",
        "coordinates": [
          -79.3446565,
          43.7778801
        ]
      }
    },
    {
      "type": "Feature",
      "properties": {
        "amenity": "bicycle_parking",
        "bicycle_parking": "lockers",
        "capacity": 6,
        "covered": "yes",
        "fee": "yes",
        "operator": "City of Toronto",
        "operator:type": "government",
        "access": "customers",
        "website": "https://www.toronto.ca/services-payments/streets-parking-transportation/cycling-in-toronto/bicycle-parking/bicycle-lockers/",
        "description": "Eglinton GO: In parking lot, east of the station house",
        "meta_source": "City of Toronto",
        "meta_source_dataset": "City of Toronto Bicycle Locker webpage",
        "meta_source_url": "https://www.toronto.ca/services-payments/streets-parking-transportation/cycling-in-toronto/bicycle-parking/bicycle-lockers/locker-locations/",
        "meta_source_license": "https://www.toronto.ca/home/copyright-information/",
        "meta_source_last_updated": "2025-07-02 09:15:56-04:00"
      },
      "geometry": {
        "type": "Point",
        "coordinates": [
          -79.2307806,
          43.7396776
        ]
      }
    },
    {
      "type": "Feature",
      "properties": {
        "amenity": "bicycle_parking",
        "bicycle_parking": "lockers",
        "capacity": 6,
        "covered": "yes",
        "fee": "yes",
        "operator": "City of Toronto",
        "operator:type": "government",
        "access": "customers",
        "website": "https://www.toronto.ca/services-payments/streets-parking-transportation/cycling-in-toronto/bicycle-parking/bicycle-lockers/",
        "description": "Etobicoke Civic Centre: Located on the south side, before the outside ATM",
        "meta_source": "City of Toronto",
        "meta_source_dataset": "City of Toronto Bicycle Locker webpage",
        "meta_source_url": "https://www.toronto.ca/services-payments/streets-parking-transportation/cycling-in-toronto/bicycle-parking/bicycle-lockers/locker-locations/",
        "meta_source_license": "https://www.toronto.ca/home/copyright-information/",
        "meta_source_last_updated": "2025-07-02 09:15:56-04:00"
      },
      "geometry": {
        "type": "Point",
        "coordinates": [
          -79.5644903,
          43.643047599999996
        ]
      }
    },
    {
      "type": "Feature",
      "properties": {
        "amenity": "bicycle_parking",
        "bicycle_parking": "lockers",
        "capacity": 6,
        "covered": "yes",
        "fee": "yes",
        "operator": "City of Toronto",
        "operator:type": "government",
        "access": "customers",
        "website": "https://www.toronto.ca/services-payments/streets-parking-transportation/cycling-in-toronto/bicycle-parking/bicycle-lockers/",
        "description": "Exhibition Place: On the south side of Exhibition GO Station",
        "meta_source": "City of Toronto",
        "meta_source_dataset": "City of Toronto Bicycle Locker webpage",
        "meta_source_url": "https://www.toronto.ca/services-payments/streets-parking-transportation/cycling-in-toronto/bicycle-parking/bicycle-lockers/locker-locations/",
        "meta_source_license": "https://www.toronto.ca/home/copyright-information/",
        "meta_source_last_updated": "2025-07-02 09:15:56-04:00"
      },
      "geometry": {
        "type": "Point",
        "coordinates": [
          -79.4208741,
          43.634879399999996
        ]
      }
    },
    {
      "type": "Feature",
      "properties": {
        "amenity": "bicycle_parking",
        "bicycle_parking": "lockers",
        "capacity": 12,
        "covered": "yes",
        "fee": "yes",
        "operator": "City of Toronto",
        "operator:type": "government",
        "access": "customers",
        "website": "https://www.toronto.ca/services-payments/streets-parking-transportation/cycling-in-toronto/bicycle-parking/bicycle-lockers/",
        "description": "Finch GO: Just north of the station house on the east side of Yonge St.",
        "meta_source": "City of Toronto",
        "meta_source_dataset": "City of Toronto Bicycle Locker webpage",
        "meta_source_url": "https://www.toronto.ca/services-payments/streets-parking-transportation/cycling-in-toronto/bicycle-parking/bicycle-lockers/locker-locations/",
        "meta_source_license": "https://www.toronto.ca/home/copyright-information/",
        "meta_source_last_updated": "2025-07-02 09:15:56-04:00"
      },
      "geometry": {
        "type": "Point",
        "coordinates": [
          -79.4157887,
          43.78204759999999
        ]
      }
    },
    {
      "type": "Feature",
      "properties": {
        "amenity": "bicycle_parking",
        "bicycle_parking": "lockers",
        "capacity": 12,
        "covered": "yes",
        "fee": "yes",
        "operator": "City of Toronto",
        "operator:type": "government",
        "access": "customers",
        "website": "https://www.toronto.ca/services-payments/streets-parking-transportation/cycling-in-toronto/bicycle-parking/bicycle-lockers/",
        "description": "Finch Subway Station: Located on the west side of Yonge St. beside the passenger drop-off and pick-up",
        "meta_source": "City of Toronto",
        "meta_source_dataset": "City of Toronto Bicycle Locker webpage",
        "meta_source_url": "https://www.toronto.ca/services-payments/streets-parking-transportation/cycling-in-toronto/bicycle-parking/bicycle-lockers/locker-locations/",
        "meta_source_license": "https://www.toronto.ca/home/copyright-information/",
        "meta_source_last_updated": "2025-07-02 09:15:56-04:00"
      },
      "geometry": {
        "type": "Point",
        "coordinates": [
          -79.4159389,
          43.78127299999999
        ]
      }
    },
    {
      "type": "Feature",
      "properties": {
        "amenity": "bicycle_parking",
        "bicycle_parking": "lockers",
        "capacity": 4,
        "covered": "yes",
        "fee": "yes",
        "operator": "City of Toronto",
        "operator:type": "government",
        "access": "customers",
        "website": "https://www.toronto.ca/services-payments/streets-parking-transportation/cycling-in-toronto/bicycle-parking/bicycle-lockers/",
        "description": "Long Branch: Located at Lakeshore Rd. and Browns Line",
        "meta_source": "City of Toronto",
        "meta_source_dataset": "City of Toronto Bicycle Locker webpage",
        "meta_source_url": "https://www.toronto.ca/services-payments/streets-parking-transportation/cycling-in-toronto/bicycle-parking/bicycle-lockers/locker-locations/",
        "meta_source_license": "https://www.toronto.ca/home/copyright-information/",
        "meta_source_last_updated": "2025-07-02 09:15:56-04:00"
      },
      "geometry": {
        "type": "Point",
        "coordinates": [
          -79.5432472,
          43.5921721
        ]
      }
    },
    {
      "type": "Feature",
      "properties": {
        "amenity": "bicycle_parking",
        "bicycle_parking": "lockers",
        "capacity": 4,
        "covered": "yes",
        "fee": "yes",
        "operator": "City of Toronto",
        "operator:type": "government",
        "access": "customers",
        "website": "https://www.toronto.ca/services-payments/streets-parking-transportation/cycling-in-toronto/bicycle-parking/bicycle-lockers/",
        "description": "Rouge Hill GO Station: Located on the north side of the tracks near the eastern most bike shelter",
        "meta_source": "City of Toronto",
        "meta_source_dataset": "City of Toronto Bicycle Locker webpage",
        "meta_source_url": "https://www.toronto.ca/services-payments/streets-parking-transportation/cycling-in-toronto/bicycle-parking/bicycle-lockers/locker-locations/",
        "meta_source_license": "https://www.toronto.ca/home/copyright-information/",
        "meta_source_last_updated": "2025-07-02 09:15:56-04:00"
      },
      "geometry": {
        "type": "Point",
        "coordinates": [
          -79.1316032,
          43.78069980000001
        ]
      }
    },
    {
      "type": "Feature",
      "properties": {
        "amenity": "bicycle_parking",
        "bicycle_parking": "lockers",
        "capacity": 6,
        "covered": "yes",
        "fee": "yes",
        "operator": "City of Toronto",
        "operator:type": "government",
        "access": "customers",
        "website": "https://www.toronto.ca/services-payments/streets-parking-transportation/cycling-in-toronto/bicycle-parking/bicycle-lockers/",
        "description": "Scarborough GO Station: Located on the south side of the tracks next to the bike shelter",
        "meta_source": "City of Toronto",
        "meta_source_dataset": "City of Toronto Bicycle Locker webpage",
        "meta_source_url": "https://www.toronto.ca/services-payments/streets-parking-transportation/cycling-in-toronto/bicycle-parking/bicycle-lockers/locker-locations/",
        "meta_source_license": "https://www.toronto.ca/home/copyright-information/",
        "meta_source_last_updated": "2025-07-02 09:15:56-04:00"
      },
      "geometry": {
        "type": "Point",
        "coordinates": [
          -79.2516804,
          43.71860550000001
        ]
      }
    },
    {
      "type": "Feature",
      "properties": {
        "amenity": "bicycle_parking",
        "bicycle_parking": "lockers",
        "capacity": 2,
        "covered": "yes",
        "fee": "yes",
        "operator": "City of Toronto",
        "operator:type": "government",
        "access": "customers",
        "website": "https://www.toronto.ca/services-payments/streets-parking-transportation/cycling-in-toronto/bicycle-parking/bicycle-lockers/",
        "description": "Yorkdale Subway: Located outside of the Yorkdale Subway Station under the bridge",
        "meta_source": "City of Toronto",
        "meta_source_dataset": "City of Toronto Bicycle Locker webpage",
        "meta_source_url": "https://www.toronto.ca/services-payments/streets-parking-transportation/cycling-in-toronto/bicycle-parking/bicycle-lockers/locker-locations/",
        "meta_source_license": "https://www.toronto.ca/home/copyright-information/",
        "meta_source_last_updated": "2025-07-02 09:15:56-04:00"
      },
      "geometry": {
        "type": "Point",
        "coordinates": [
          -79.448576,
          43.72347489999999
        ]
      }
    },
    {
      "type": "Feature",
      "properties": {
        "amenity": "bicycle_parking",
        "bicycle_parking": "lockers",
        "capacity": 8,
        "covered": "yes",
        "fee": "yes",
        "operator": "City of Toronto",
        "operator:type": "government",
        "access": "customers",
        "website": "https://www.toronto.ca/services-payments/streets-parking-transportation/cycling-in-toronto/bicycle-parking/bicycle-lockers/",
        "description": "Kipling Station: Located west of the subway at parking lot",
        "meta_source": "City of Toronto",
        "meta_source_dataset": "City of Toronto Bicycle Locker webpage",
        "meta_source_url": "https://www.toronto.ca/services-payments/streets-parking-transportation/cycling-in-toronto/bicycle-parking/bicycle-lockers/locker-locations/",
        "meta_source_license": "https://www.toronto.ca/home/copyright-information/",
        "meta_source_last_updated": "2025-07-02 09:15:56-04:00"
      },
      "geometry": {
        "type": "Point",
        "coordinates": [
          -79.5357585,
          43.636727399999984
        ]
      }
    }
  ]
}